CCSDS_OMM_VERS,COMMENT,CREATION_DATE,ORIGINATOR,OBJECT_NAME,OBJECT_ID,CENTER_NAME,REF_FRAME,TIME_SYSTEM,MEAN_ELEMENT_THEORY,EPOCH,MEAN_MOTION,ECCENTRICITY,INCLINATION,RA_OF_ASC_NODE,ARG_OF_PERICENTER,MEAN_ANOMALY,EPHEMERIS_TYPE,CLASSIFICATION_TYPE,NORAD_CAT_ID,ELEMENT_SET_NO,REV_AT_EPOCH,BSTAR,MEAN_MOTION_DOT,MEAN_MOTION_DDOT,SEMIMAJOR_AXIS,PERIOD,APOAPSIS,PERIAPSIS,OBJECT_TYPE,RCS_SIZE,COUNTRY_CODE,LAUNCH_DATE,SITE,DECAY_DATE,FILE,GP_ID,TLE_LINE0,TLE_LINE1,TLE_LINE2,NORAD_KEY
3.0,GENERATED VIA SPACE-TRACK.ORG API,2026-05-06T14:46:56,18 SPCS,HISPASAT 36W-1,2017-006A,EARTH,TEME,UTC,SGP4,2026-05-06T09:32:45.968064,1.002712,9.79e-05,0.0071,277.1491,124.6454,289.6692,0,U,41942,999,3382,0.00000000000000,-0.00000237,0.0000000000000,42164.896,1436.105,35790.889,35782.633,PAYLOAD,LARGE,SPN,2017-01-28,FRGUI,,5177353,322298100,0 HISPASAT 36W-1,1 41942U 17006A   26126.39775426 -.00000237  00000-0  00000+0 0  9996,2 41942   0.0071 277.1491 0000979 124.6454 289.6692  1.00271200 33823,41942
3.0,GENERATED VIA SPACE-TRACK.ORG API,2026-05-06T14:56:52,18 SPCS,GALAXY 31,2022-153A,EARTH,TEME,UTC,SGP4,2026-05-06T11:35:02.643072,1.00272664,0.0001525,0.0076,222.0158,190.0709,225.0284,0,U,54243,999,671,0.00000000000000,0.00000021,0.0000000000000,42164.486,1436.084,35792.781,35779.92,PAYLOAD,LARGE,US,2022-11-12,AFETR,,5177449,322303991,0 GALAXY 31,1 54243U 22153A   26126.48266948  .00000021  00000-0  00000+0 0  9997,2 54243   0.0076 222.0158 0001525 190.0709 225.0284  1.00272664  6717,54243
3.0,GENERATED VIA SPACE-TRACK.ORG API,2026-05-06T14:46:56,18 SPCS,TURKSAT 5A,2021-001A,EARTH,TEME,UTC,SGP4,2026-05-06T11:34:26.608224,1.00272084,2.84e-05,0.0078,337.7059,129.4712,321.7043,0,U,47306,999,1954,0.00000000000000,0.00000162,0.0000000000000,42164.648,1436.093,35787.711,35785.316,PAYLOAD,LARGE,TURK,2021-01-08,AFETR,,5177261,322300635,0 TURKSAT 5A,1 47306U 21001A   26126.48225241  .00000162  00000-0  00000+0 0  9997,2 47306   0.0078 337.7059 0000284 129.4712 321.7043  1.00272084 19544,47306
3.0,GENERATED VIA SPACE-TRACK.ORG API,2026-05-06T14:46:56,18 SPCS,ASIASAT 5,2009-042A,EARTH,TEME,UTC,SGP4,2026-05-06T11:54:24.691968,1.00273017,0.0001621,0.008,311.5622,76.435,115.4688,0,U,35696,999,6129,0.00000000000000,-0.00000300,0.0000000000000,42164.387,1436.079,35793.086,35779.417,PAYLOAD,LARGE,AC,2009-08-11,TTMTR,,5177081,322295778,0 ASIASAT 5,1 35696U 09042A   26126.49611912 -.00000300  00000-0  00000+0 0  9997,2 35696   0.0080 311.5622 0001621  76.4350 115.4688  1.00273017 61296,35696
3.0,GENERATED VIA SPACE-TRACK.ORG API,2026-05-06T14:46:56,18 SPCS,SUPERBIRD 8,2018-033A,EARTH,TEME,UTC,SGP4,2026-05-06T11:23:38.706720,1.00272169,0.0001408,0.0082,313.0103,99.518,144.7325,0,U,43271,999,2964,0.00000000000000,-0.00000084,0.0000000000000,42164.624,1436.091,35792.426,35780.553,PAYLOAD,LARGE,JPN,2018-04-05,FRGUI,,5177194,322298799,0 SUPERBIRD 8,1 43271U 18033A   26126.47475355 -.00000084  00000-0  00000+0 0  9991,2 43271   0.0082 313.0103 0001408  99.5180 144.7325  1.00272169 29640,43271
3.0,GENERATED VIA SPACE-TRACK.ORG API,2026-05-06T14:56:52,18 SPCS,CHINASAT 9B,2021-080A,EARTH,TEME,UTC,SGP4,2026-05-06T11:54:39.669408,1.0026941,0.0001757,0.0085,264.7577,152.5547,87.1054,0,U,49125,999,1723,0.00000000000000,-0.00000304,0.0000000000000,42165.398,1436.131,35794.671,35779.854,PAYLOAD,LARGE,PRC,2021-09-09,XSC,,5177378,322302614,0 CHINASAT 9B,1 49125U 21080A   26126.49629247 -.00000304  00000-0  00000+0 0  9999,2 49125   0.0085 264.7577 0001757 152.5547  87.1054  1.00269410 17234,49125
3.0,GENERATED VIA SPACE-TRACK.ORG API,2026-05-06T14:46:56,18 SPCS,WGS 9 (USA 275),2017-016A,EARTH,TEME,UTC,SGP4,2026-05-06T09:39:37.810080,1.00256253,8.63e-05,0.0087,246.2609,102.0817,8.8499,0,U,42075,999,3347,0.00000000000000,-0.00000091,0.0000000000000,42169.087,1436.319,35794.591,35787.313,PAYLOAD,LARGE,US,2017-03-19,AFETR,,5177179,322298110,0 WGS 9 (USA 275),1 42075U 17016A   26126.40252095 -.00000091  00000-0  00000+0 0  9997,2 42075   0.0087 246.2609 0000863 102.0817   8.8499  1.00256253 33479,42075
3.0,GENERATED VIA SPACE-TRACK.ORG API,2026-05-06T14:56:52,18 SPCS,PAKSAT MM1R,2024-104A,EARTH,TEME,UTC,SGP4,2026-05-06T11:36:33.903936,1.00267727,0.0001626,0.0088,251.034,149.5732,36.0302,0,U,59915,999,710,0.00000000000000,0.00000161,0.0000000000000,42165.87,1436.155,35794.591,35780.878,PAYLOAD,LARGE,PAKI,2024-05-30,XSC,,5177608,322308049,0 PAKSAT MM1R,1 59915U 24104A   26126.48372574  .00000161  00000-0  00000+0 0  9994,2 59915   0.0088 251.0340 0001626 149.5732  36.0302  1.00267727  7102,59915
3.0,GENERATED VIA SPACE-TRACK.ORG API,2026-05-06T14:46:56,18 SPCS,ANIK G1,2013-014A,EARTH,TEME,UTC,SGP4,2026-05-06T09:12:25.417728,1.00271846,0.0002207,0.0089,296.9835,96.8727,221.1831,0,U,39127,999,4783,0.00000000000000,-0.00000066,0.0000000000000,42164.715,1436.096,35795.886,35777.274,PAYLOAD,LARGE,CA,2013-04-15,TTMTR,,5177137,322297524,0 ANIK G1,1 39127U 13014A   26126.38362752 -.00000066  00000-0  00000+0 0  9996,2 39127   0.0089 296.9835 0002207  96.8727 221.1831  1.00271846 47832,39127
3.0,GENERATED VIA SPACE-TRACK.ORG API,2026-05-06T10:08:52,18 SPCS,GALAXY 32,2022-153B,EARTH,TEME,UTC,SGP4,2026-05-06T00:43:46.487424,1.00271655,0.00029252,0.009,316.6684,78.7927,108.3849,0,U,54244,999,1272,0.00000000000000,-0.00000166,0.0000000000000,42164.768,1436.099,35798.967,35774.3,PAYLOAD,LARGE,US,2022-11-12,AFETR,,5176958,322280210,0 GALAXY 32,1 54244U 22153B   26126.03039916 -.00000166  00000-0  00000-0 0  9994,2 54244   0.0090 316.6684 0002925  78.7927 108.3849  1.00271655 12724,54244
3.0,GENERATED VIA SPACE-TRACK.ORG API,2026-05-06T14:46:56,18 SPCS,APSTAR 7,2012-013A,EARTH,TEME,UTC,SGP4,2026-05-06T13:41:04.011648,1.00270901,0.0003707,0.009,293.274,135.3145,77.6039,0,U,38107,999,5139,0.00000000000000,0.00000000,0.0000000000000,42164.98,1436.11,35802.475,35771.214,PAYLOAD,MEDIUM,PRC,2012-03-31,XSC,,5177125,322296871,0 APSTAR 7,1 38107U 12013A   26126.57018532  .00000000  00000-0  00000+0 0  9993,2 38107   0.0090 293.2740 0003707 135.3145  77.6039  1.00270901 51396,38107
3.0,GENERATED VIA SPACE-TRACK.ORG API,2026-05-06T14:46:56,18 SPCS,YAMAL 601,2019-031A,EARTH,TEME,UTC,SGP4,2026-05-06T11:39:41.105088,1.00272526,0.0002825,0.0092,338.2858,70.2411,39.7461,0,U,44307,999,2550,0.00000000000000,0.00000128,0.0000000000000,42164.524,1436.086,35798.301,35774.478,PAYLOAD,LARGE,CIS,2019-05-30,TTMTR,,5177213,322299538,0 YAMAL 601,1 44307U 19031A   26126.48589242  .00000128  00000-0  00000+0 0  9991,2 44307   0.0092 338.2858 0002825  70.2411  39.7461  1.00272526 25507,44307
3.0,GENERATED VIA SPACE-TRACK.ORG API,2026-05-06T14:46:56,18 SPCS,EUTE 117W B,2016-038B,EARTH,TEME,UTC,SGP4,2026-05-06T10:57:38.637216,1.00270784,3.07e-05,0.0094,134.5737,154.8417,342.3094,0,U,41589,999,3624,0.00000000000000,-0.00000004,0.0000000000000,42165.013,1436.111,35788.172,35785.583,PAYLOAD,LARGE,EUTE,2016-06-15,AFETR,,5177174,322298026,0 EUTE 117W B,1 41589U 16038B   26126.45669719 -.00000004  00000-0  00000+0 0  9993,2 41589   0.0094 134.5737 0000307 154.8417 342.3094  1.00270784 36241,41589
3.0,GENERATED VIA SPACE-TRACK.ORG API,2026-05-06T14:46:56,18 SPCS,INMARSAT 5-F1,2013-073A,EARTH,TEME,UTC,SGP4,2026-05-06T13:14:48.694272,1.00272924,8e-06,0.0095,297.0451,197.7301,350.9462,0,U,39476,999,4516,0.00000000000000,0.00000035,0.0000000000000,42164.413,1436.081,35786.615,35785.94,PAYLOAD,LARGE,IM,2013-12-08,TTMTR,,5177140,322297101,0 INMARSAT 5-F1,1 39476U 13073A   26126.55195248  .00000035  00000-0  00000+0 0  9996,2 39476   0.0095 297.0451 0000080 197.7301 350.9462  1.00272924 45161,39476
3.0,GENERATED VIA SPACE-TRACK.ORG API,2026-05-06T10:08:52,18 SPCS,FENGYUNG-4C,2025-312A,EARTH,TEME,UTC,SGP4,2026-05-06T00:04:57.711072,1.00271324,9.068e-05,0.0096,75.0721,51.2105,231.8328,0,U,67246,999,135,0.00000000000000,-0.00000315,0.0000000000000,42164.861,1436.104,35790.55,35782.903,PAYLOAD,,PRC,2025-12-26,XSC,,5176958,322290696,0 FENGYUNG-4C,1 67246U 25312A   26126.00344573 -.00000315  00000-0  00000-0 0  9991,2 67246   0.0096  75.0721 0000907  51.2105 231.8328  1.00271324  1350,67246
3.0,GENERATED VIA SPACE-TRACK.ORG API,2026-05-06T14:46:56,18 SPCS,ABS 2A,2016-038A,EARTH,TEME,UTC,SGP4,2026-05-06T11:10:51.287232,1.00270685,0.0001524,0.0098,265.1592,104.7592,96.8786,0,U,41588,999,3629,0.00000000000000,-0.00000076,0.0000000000000,42165.04,1436.113,35793.331,35780.479,PAYLOAD,LARGE,ABS,2016-06-15,AFETR,,5177174,322298525,0 ABS 2A,1 41588U 16038A   26126.46587138 -.00000076  00000-0  00000+0 0  9996,2 41588   0.0098 265.1592 0001524 104.7592  96.8786  1.00270685 36298,41588
3.0,GENERATED VIA SPACE-TRACK.ORG API,2026-05-06T14:46:56,18 SPCS,TURKSAT 4B,2015-060A,EARTH,TEME,UTC,SGP4,2026-05-06T11:40:03.569088,1.00274949,0.0002237,0.0098,299.4134,101.8758,48.0783,0,U,40984,999,3868,0.00000000000000,0.00000122,0.0000000000000,42163.845,1436.052,35795.142,35776.278,PAYLOAD,LARGE,TURK,2015-10-16,TTMTR,,5177165,322297910,0 TURKSAT 4B,1 40984U 15060A   26126.48615242  .00000122  00000-0  00000+0 0  9990,2 40984   0.0098 299.4134 0002237 101.8758  48.0783  1.00274949 38681,40984
3.0,GENERATED VIA SPACE-TRACK.ORG API,2026-05-06T14:46:56,18 SPCS,EUTE 115 WEST B(SATMEX 7,2015-010B,EARTH,TEME,UTC,SGP4,2026-05-06T09:10:18.122016,1.00243181,0.0001806,0.0101,138.5212,63.1353,45.2453,0,U,40425,999,4097,0.00000000000000,-0.00000013,0.0000000000000,42172.753,1436.507,35802.234,35787.001,PAYLOAD,LARGE,EUTE,2015-03-02,AFETR,,5177157,322297315,0 EUTE 115 WEST B(SATMEX 7,1 40425U 15010B   26126.38215419 -.00000013  00000-0  00000+0 0  9996,2 40425   0.0101 138.5212 0001806  63.1353  45.2453  1.00243181 40970,40425
